{"type":"FeatureCollection","features":[{"type":"Feature","properties":{},"geometry":{"coordinates":[[80.21773652380739,12.967919641215019],[80.21854738984138,12.96985558839431],[80.22280443651931,12.968077678284786],[80.22495323150923,12.96922344403265],[80.22908864828281,12.973332353665143],[80.2294535379973,12.973964487584482],[80.23265645883242,12.97716464089018],[80.23297707381357,12.977263126789012],[80.23333873760299,12.980410976924972],[80.23338015788408,12.98166219159134],[80.23206054116707,12.982018381647904],[80.23129207981282,12.983542760454682],[80.23074317884357,12.983917167854173],[80.23079806894066,12.984639237674386],[80.23101762932737,12.985147359623156],[80.23082551398835,12.985548507796423],[80.22880853621456,12.985742153100574],[80.22708245874685,12.986115916103998],[80.22533507168129,12.98634432655237],[80.22390732859202,12.986718088651116],[80.22305494465769,12.987029556636344],[80.22305823089727,12.987854210426434],[80.22225158944514,12.988759306287506],[80.22093163070514,12.989783489730854],[80.21696054030048,12.995053800611657],[80.21660861679584,12.996112830989077],[80.21233550698736,12.99701643117291],[80.21049897894153,12.997299912906072],[80.20950359128602,12.99775827091446],[80.20904472071624,12.998124091014333],[80.20731352720628,12.998367970781004],[80.20601955504446,12.992579366516566],[80.2051473791833,12.990361267300614],[80.20484480547572,12.988956484100342],[80.20475100535737,12.987987035344133],[80.20546652489776,12.987833106524675],[80.20404125848961,12.978063145681261],[80.20708836293903,12.976006733177897],[80.21048090455213,12.973504950649229],[80.21275023982116,12.971628597236943],[80.21586771049408,12.968925729942043],[80.21773360688104,12.967958944716358]],"type":"LineString"}},{"type":"Feature","properties":{},"geometry":{"coordinates":[[80.21849885325429,12.969880205260267],[80.22082915695205,12.975506270263978],[80.23052084811656,12.981492861944702],[80.23200391408784,12.982008913627752],[80.23333950548636,12.98171800257731],[80.23297724420837,12.977285820186552],[80.23263586610591,12.97729260345352],[80.22943187434186,12.97398228532903],[80.22913286303645,12.973353521093046],[80.2249936887182,12.969240463543088],[80.22276173434767,12.968062325593877],[80.21846057227947,12.969874843204067]],"type":"LineString"}}]}