{"type":"FeatureCollection","features":[{"type":"Feature","properties":{},"geometry":{"coordinates":[[80.21773652380739,12.967919641215019],[80.21854738984138,12.96985558839431],[80.22280443651931,12.968077678284786],[80.22495323150923,12.96922344403265],[80.22908864828281,12.973332353665143],[80.2294535379973,12.973964487584482],[80.23265645883242,12.97716464089018],[80.23297707381357,12.977263126789012],[80.23333873760299,12.980410976924972],[80.23338015788408,12.98166219159134],[80.23206054116707,12.982018381647904],[80.23129207981282,12.983542760454682],[80.23074317884357,12.983917167854173],[80.23079806894066,12.984639237674386],[80.23101762932737,12.985147359623156],[80.23082551398835,12.985548507796423],[80.22880853621456,12.985742153100574],[80.22708245874685,12.986115916103998],[80.22533507168129,12.98634432655237],[80.22390732859202,12.986718088651116],[80.22305494465769,12.987029556636344],[80.22305823089727,12.987854210426434],[80.22225158944514,12.988759306287506],[80.22093163070514,12.989783489730854],[80.21696054030048,12.995053800611657],[80.21660861679584,12.996112830989077],[80.21233550698736,12.99701643117291],[80.21049897894153,12.997299912906072],[80.20950359128602,12.99775827091446],[80.20904472071624,12.998124091014333],[80.20731352720628,12.998367970781004],[80.20601955504446,12.992579366516566],[80.2051473791833,12.990361267300614],[80.20484480547572,12.988956484100342],[80.20475100535737,12.987987035344133],[80.20546652489776,12.987833106524675],[80.20404125848961,12.978063145681261],[80.20708836293903,12.976006733177897],[80.21048090455213,12.973504950649229],[80.21275023982116,12.971628597236943],[80.21586771049408,12.968925729942043],[80.21773360688104,12.967958944716358]],"type":"LineString"}},{"type":"Feature","properties":{},"geometry":{"coordinates":[[80.21849885325429,12.969880205260267],[80.22082915695205,12.975506270263978],[80.23052084811656,12.981492861944702],[80.23200391408784,12.982008913627752],[80.23333950548636,12.98171800257731],[80.23297724420837,12.977285820186552],[80.23263586610591,12.97729260345352],[80.22943187434186,12.97398228532903],[80.22913286303645,12.973353521093046],[80.2249936887182,12.969240463543088],[80.22276173434767,12.968062325593877],[80.21846057227947,12.969874843204067]],"type":"LineString"}},{"type":"Feature","properties":{},"geometry":{"coordinates":[[80.23201317020863,12.98202300788229],[80.23063936551375,12.981587932904773],[80.22074797171115,12.975463335103143],[80.22009541448125,12.975898420799638],[80.21796601720479,12.981454063528076],[80.21789732696976,12.985637447478013],[80.2184468488482,12.988682906691139],[80.21947720236778,12.99166139661942],[80.22088113754643,12.989735282260682],[80.2222760154238,12.9887611988851],[80.22301995029056,12.987923031063119],[80.22301995029056,12.987016900506433],[80.2253447467524,12.986337300420317],[80.22727432781477,12.986156073416467],[80.22890168533661,12.985725658753012],[80.23081901762606,12.985566310966405],[80.2310103736703,12.985111808354432],[80.23081901762606,12.984645650965334],[80.23073529935652,12.983899797323858],[80.23131299340355,12.983547320992002],[80.23206645782977,12.982043950810251]],"type":"LineString"}},{"type":"Feature","properties":{},"geometry":{"coordinates":[[80.20478668703788,12.988378317623969],[80.2181062443363,12.986841662505583],[80.21789577168767,12.985663401687404],[80.21795025265982,12.981442894243585],[80.22009020981278,12.975913523835473],[80.22082639184407,12.975473836915029],[80.21778206551545,12.967957655137525],[80.21583561460278,12.968945032723468],[80.21052953608802,12.973440149569072],[80.20410358170534,12.978065098285029],[80.2054423745127,12.987837663364374],[80.20473347621743,12.988006142116134],[80.2047973075027,12.98839442605312]],"type":"LineString"}},{"type":"Feature","properties":{},"geometry":{"coordinates":[[80.2195711275076,12.99160267681043],[80.21845122042748,12.988588755238652],[80.21813124697621,12.98682195662478],[80.20479901983487,12.988406879490938],[80.20483048943527,12.988881813107653],[80.20514518548867,12.990338368519446],[80.2059948648282,12.992484855661758],[80.20736428959515,12.998353812544494],[80.20909699154407,12.99814277444139],[80.2094772379649,12.997765125345069],[80.21050752940067,12.99729068175543],[80.21271394148266,12.996937935283412],[80.21448621432484,12.996548282055159],[80.216503878791,12.996123205108447],[80.21660201524207,12.99612127419202],[80.21696235017981,12.995063687262729],[80.2195578097369,12.991534786730156]],"type":"LineString"}}]}